[{"OBJECT_NAME":"NUSAT-50 (NANCY ROMAN)","OBJECT_ID":"2024-149AB","EPOCH":"2026-03-09T19:15:16.765632","MEAN_MOTION":15.29713355,"ECCENTRICITY":0.00025229,"INCLINATION":97.3817,"RA_OF_ASC_NODE":150.7693,"ARG_OF_PERICENTER":238.0469,"MEAN_ANOMALY":122.0527,"EPHEMERIS_TYPE":0,"CLASSIFICATION_TYPE":"U","NORAD_CAT_ID":60493,"ELEMENT_SET_NO":999,"REV_AT_EPOCH":8693,"BSTAR":0.0004225155,"MEAN_MOTION_DOT":0.00012094,"MEAN_MOTION_DDOT":0},{"OBJECT_NAME":"STARLINK-36458","OBJECT_ID":"2026-003K","EPOCH":"2026-03-09T11:33:01.311552","MEAN_MOTION":15.27571621,"ECCENTRICITY":0.00014309,"INCLINATION":42.9974,"RA_OF_ASC_NODE":228.0961,"ARG_OF_PERICENTER":230.7461,"MEAN_ANOMALY":129.3264,"EPHEMERIS_TYPE":0,"CLASSIFICATION_TYPE":"U","NORAD_CAT_ID":67343,"ELEMENT_SET_NO":999,"REV_AT_EPOCH":879,"BSTAR":0.0013148191,"MEAN_MOTION_DOT":0.00036087,"MEAN_MOTION_DDOT":0}]
